METHANESAT              
1 59101U 24043D   26083.89157802  .00002962  00000+0  25789-3 0  9990
2 59101  97.8293 214.6069 0009253 291.9223  68.1014 14.97677388112038
GOSAT-GW (IBUKI GW)     
1 64694U 25141A   26065.03170321  .00001373  00000+0  25032-3 0  9996
2 64694  98.0504   4.0681 0001432  83.7436 276.3932 14.67569112 36718
GHGSAT-C1               
1 46278U 20061G   26083.94759153  .00031830  00000+0  31770-3 0  9993
2 46278  97.2132 166.6668 0001024  53.6821 306.4534 15.65583456310270
GHGSAT-C12              
1 64529U 25135B   26083.91807978  .00003953  00000+0  18832-3 0  9994
2 64529  97.4633 199.5591 0006529 105.7102 254.4854 15.19688531 42024
GHGSAT-C13              
1 64548U 25135W   26083.89531258  .00003528  00000+0  16526-3 0  9993
2 64548  97.4662 199.9815 0002488  74.4622 285.6887 15.20367806 42044
GHGSAT-C2               
1 47509U 21006DA  26083.85526240  .00006196  00000+0  17473-3 0  9991
2 47509  97.2262 132.5715 0006976 108.0585 252.1420 15.36742023286896
GHGSAT-C3               
1 52737U 22057F   26083.94983605  .00007426  00000+0  23397-3 0  9998
2 52737  97.6462 226.5839 0007077  68.5210 291.6785 15.33195119212627
GHGSAT-C4               
1 52746U 22057Q   26083.90430618  .00007124  00000+0  22466-3 0  9996
2 52746  97.6386 225.4538 0007073  55.6876 304.5034 15.33182049212626
GHGSAT-C5               
1 52744U 22057N   26083.92227080  .00007209  00000+0  22733-3 0  9994
2 52744  97.6551 228.0312 0007990  64.1877 296.0188 15.33171767212621
GHGSAT-C6               
1 56204U 23054AC  26083.90543522  .00015519  00000+0  27417-3 0  9994
2 56204  97.3106 352.4341 0006957   7.3162 352.8190 15.50414564165389
GHGSAT-C7               
1 56209U 23054AH  26083.89256365  .00011734  00000+0  22581-3 0  9995
2 56209  97.3060 351.2843 0007578 358.2169   1.9053 15.48027302165345
GHGSAT-C8               
1 56186U 23054J   26083.87650870  .00015151  00000+0  26762-3 0  9998
2 56186  97.3060 351.7864 0006086  36.1772 323.9890 15.50431754165363
SENTINEL-5P             
1 42969U 17064A   26083.82969110  .00000076  00000+0  57243-4 0  9990
2 42969  98.7903  26.5720 0001170  91.8045 268.3265 14.19502812437599
ENMAP                   
1 52159U 22033C   26083.97735699  .00000276  00000+0  48543-4 0  9998
2 52159  97.9772 167.4227 0001306 104.9829 255.1525 14.74984440214240
PRISMA                  
1 44072U 19015A   26083.90624233  .00001486  00000+0  18644-3 0  9995
2 44072  97.8684 159.9160 0001479  85.7436 274.3947 14.83660305379557
SENTINEL-2A             
1 40697U 15028A   26083.94901817  .00000103  00000+0  56105-4 0  9994
2 40697  98.5624 160.0176 0001312  97.5451 262.5881 14.30819022561689
SENTINEL-2B             
1 42063U 17013A   26083.94174520  .00000064  00000+0  41079-4 0  9992
2 42063  98.5678 159.9151 0001170  94.1119 266.0197 14.30812810472591
SENTINEL-2C             
1 60989U 24157A   26083.69704722  .00000125  00000+0  64195-4 0  9993
2 60989  98.5666 159.6946 0001033 114.9869 245.1421 14.30819627 80906
LANDSAT 8               
1 39084U 13008A   26083.90493430  .00000399  00000+0  98473-4 0  9992
2 39084  98.1892 155.3788 0001221  92.7355 267.3983 14.57124314685624
LANDSAT 9               
1 49260U 21088A   26083.80206526  .00000403  00000+0  99349-4 0  9992
2 49260  98.1913 155.3425 0001195  93.6965 266.4370 14.57112419238717
TANAGER-1               
1 60507U 24149AR  26083.21470995  .00015752  00000+0  35236-3 0  9995
2 60507  97.3814 176.8034 0007348 229.6549 130.4058 15.43543315 89923
